0 FENGYUN 1C DEB
1 31163U 99025BHR 13281.41755273  .00000666  00000-0  30980-3 0  3779
2 31163 098.8962 355.0497 0060065 153.4305 207.0181 14.23042618340545
0 FENGYUN 1C DEB
1 31163U 99025BHR 13284.44095519  .00000695  00000-0  32206-3 0  3781
2 31163 098.8968 358.1062 0060477 144.7470 215.7956 14.23047824340973
0 FENGYUN 1C DEB
1 31163U 99025BHR 13287.39403150  .00000721  00000-0  33331-3 0  3793
2 31163 098.8957 001.0843 0061095 136.1126 224.5064 14.23053110341392
0 FENGYUN 1C DEB
1 31163U 99025BHR 13289.43305286  .00000755  00000-0  34771-3 0  3809
2 31163 098.9008 003.1597 0062630 129.9129 230.7740 14.23057138341684
0 FENGYUN 1C DEB
1 31163U 99025BHR 13294.42511355  .00000893  00000-0  40816-3 0  3811
2 31163 098.8928 008.1813 0060354 115.3374 245.4709 14.23069410342395
